STARLINK-32237          
1 60443U 24144U   26068.62841727  .00001518  00000+0  63376-4 0  9994
2 60443  53.1588 217.1357 0000868  58.8234 301.2851 15.30189107 89302
SCS-01 D                
1 63985U 25100D   26068.75607686  .00032471  00000+0  10528-2 0  9990
2 63985  97.3730 145.4097 0006346 266.2302  93.8214 15.31902149 45621
